[Satellite]
VERSION=1.1
NAME=LAPAN-A3
NICKNAME=LAPAN-A3
TLE1=1 41603U 16040E   17186.28205252  .00000254  00000-0  15255-4 0  9997
TLE2=2 41603  97.4598 248.0498 0014163  18.0453  45.7885 15.19360781 57403
